OBJECT_NAME,OBJECT_ID,EPOCH,MEAN_MOTION,ECCENTRICITY,INCLINATION,RA_OF_ASC_NODE,ARG_OF_PERICENTER,MEAN_ANOMALY,EPHEMERIS_TYPE,CLASSIFICATION_TYPE,NORAD_CAT_ID,ELEMENT_SET_NO,REV_AT_EPOCH,BSTAR,MEAN_MOTION_DOT,MEAN_MOTION_DDOT
NISAR,2025-163A,2026-06-16T12:58:40.698048,14.42506430,.00012045,98.4053,355.2151,90.1975,269.9353,0,U,65053,999,4629,.11248905E-3,.329E-5,0
PRSC-S1,2025-164A,2026-06-16T14:25:24.462912,15.06454305,.00066892,41.1313,291.1144,340.1002,19.9550,0,U,65055,999,4834,.27358844E-3,.3933E-4,0
STARLINK-34788,2025-165A,2026-06-16T04:53:00.853440,15.05658110,.00017724,97.3529,243.3754,88.4082,271.7348,0,U,65056,999,4961,.17896983E-3,.2526E-4,0
STARLINK-34745,2025-165B,2026-06-16T06:56:37.449312,15.05661699,.000205,97.3509,243.4148,110.1606,249.9842,0,U,65057,999,4962,.42661E-3,.6105E-4,0
STARLINK-34779,2025-165C,2026-06-16T11:11:49.616736,15.05663164,.00021142,97.3510,243.6347,109.0911,251.0546,0,U,65058,999,4965,.31499342E-3,.4492E-4,0
STARLINK-34803,2025-165D,2026-06-16T14:15:15.155424,15.05658750,.00014523,97.3519,243.7704,115.6099,244.5278,0,U,65059,999,4967,.22452127E-3,.3184E-4,0
STARLINK-34717,2025-165E,2026-06-16T10:47:54.186144,15.05650572,.00013521,97.3528,243.6579,85.1782,274.9599,0,U,65060,999,4965,.46844794E-3,.6708E-4,0
STARLINK-34750,2025-165F,2026-06-16T12:03:40.126464,15.05672182,.00012453,97.3517,243.7364,150.1649,209.9650,0,U,65061,999,4966,.76576174E-3,.11015E-3,0
STARLINK-34708,2025-165G,2026-06-16T11:19:47.868384,15.05664741,.0001266,97.3533,243.6266,88.9642,271.1730,0,U,65062,999,4965,.11742334E-3,.1638E-4,0
STARLINK-34798,2025-165H,2026-06-16T10:39:55.869696,15.05663865,.00007717,97.3543,243.6710,96.0271,264.1044,0,U,65063,999,4965,.44501217E-3,.6372E-4,0
STARLINK-34793,2025-165J,2026-06-16T10:51:53.658432,15.05657726,.00018997,97.3534,243.6536,107.0231,253.1205,0,U,65064,999,4965,.35647832E-3,.5091E-4,0
STARLINK-34806,2025-165K,2026-06-16T10:15:59.445504,15.05660642,.0001628,97.3510,243.5331,168.0144,192.1123,0,U,65065,999,4964,.52216251E-3,.7487E-4,0
STARLINK-34739,2025-165L,2026-06-16T04:13:08.634432,15.05663558,.00015561,97.3533,243.4169,133.4532,226.6825,0,U,65066,999,4961,.40950907E-3,.5858E-4,0
STARLINK-34802,2025-165M,2026-06-16T11:23:47.305248,15.05657264,.00020341,97.3545,243.6220,103.9023,256.2431,0,U,65067,999,4965,.23691886E-3,.3363E-4,0
STARLINK-34810,2025-165N,2026-06-16T11:35:44.896992,15.05658880,.00019873,97.3535,243.6152,117.8070,242.3359,0,U,65068,999,4965,.31727558E-3,.4525E-4,0
STARLINK-34809,2025-165P,2026-06-16T11:27:46.604736,15.05654746,.00021784,97.3547,243.6236,141.6813,218.4570,0,U,65069,999,4965,.18782041E-3,.2654E-4,0
STARLINK-34794,2025-165Q,2026-06-16T05:24:55.264032,15.05646810,.0001644,97.3519,243.3476,125.7800,234.3580,0,U,65070,999,4961,.19154E-3,.2707E-4,0
STARLINK-34805,2025-165R,2026-06-16T14:51:08.060256,15.05656067,.00020182,97.3517,243.7370,96.6427,263.5031,0,U,65071,999,4967,.38314989E-3,.5476E-4,0
STARLINK-34735,2025-165S,2026-06-16T10:59:52.113120,15.05680175,.00020455,97.3509,243.6470,117.6118,242.5317,0,U,65072,999,4965,.48776611E-3,.6993E-4,0
STARLINK-34781,2025-165T,2026-06-16T04:01:10.974432,15.05661174,.00008671,97.3522,243.4291,179.1036,181.0193,0,U,65073,999,4961,.47417037E-3,.6793E-4,0
STARLINK-34780,2025-165U,2026-06-16T11:31:45.516288,15.05659591,.0001374,97.3535,243.6193,166.3295,193.7970,0,U,65074,999,4965,.32660591E-3,.4659E-4,0
STARLINK-34771,2025-167A,2026-06-16T15:00:50.834304,15.30209108,.00013798,53.1595,284.5895,86.3975,273.7183,0,U,65078,999,4866,.5094372E-3,.14763E-3,0
STARLINK-34634,2025-167B,2026-06-16T14:18:42.667488,15.34401846,.00012197,53.1605,283.7004,71.8327,288.2808,0,U,65079,999,4867,.55264176E-3,.18342E-3,0
STARLINK-34267,2025-167C,2026-06-16T14:21:44.509248,15.34401908,.00010736,53.1602,283.7125,93.6762,266.4363,0,U,65080,999,4989,.74433339E-3,.24857E-3,0
STARLINK-34561,2025-167D,2026-06-16T13:16:10.400160,15.30234065,.00019006,53.1581,284.8407,21.1306,338.9773,0,U,65081,999,4990,.15731377E-2,.46575E-3,0
STARLINK-34626,2025-167E,2026-06-16T14:00:01.000224,15.34377854,.0000894,53.1596,282.4038,84.8431,182.9278,0,U,65082,999,590,-.10857786E-3,-.404E-4,0
STARLINK-34247,2025-167F,2026-06-16T13:35:54.850848,15.30206359,.00013033,53.1610,284.9304,84.1561,275.9588,0,U,65083,999,4865,.48440174E-3,.14017E-3,0
STARLINK-34601,2025-167G,2026-06-16T14:00:01.000224,15.40605859,.00010605,53.1599,282.3282,56.9899,205.7047,0,U,65084,999,579,-.56439839E-1,-.2068739E-1,0
STARLINK-34822,2025-167J,2026-06-16T15:13:53.715072,15.30263960,.00014226,53.1604,287.4381,100.2444,259.8717,0,U,65086,999,4862,.95473665E-3,.2808E-3,0
STARLINK-34686,2025-167K,2026-06-16T15:09:21.690720,15.30216158,.00014402,53.1593,287.4146,96.6998,263.4167,0,U,65087,999,4862,.64848559E-3,.18906E-3,0
