NISAR                   
1 65053U 25163A   26167.54074882  .00000329  00000+0  11249-3 0  9999
2 65053  98.4053 355.2151 0001204  90.1975 269.9353 14.42506430 46297
PRSC-S1                 
1 65055U 25164A   26167.60097758  .00003933  00000+0  27359-3 0  9999
2 65055  41.1313 291.1144 0006689 340.1002  19.9550 15.06454305 48348
STARLINK-34788          
1 65056U 25165A   26167.20348210  .00002526  00000+0  17897-3 0  9992
2 65056  97.3529 243.3754 0001772  88.4082 271.7348 15.05658110 49618
STARLINK-34745          
1 65057U 25165B   26167.28932233  .00006105  00000+0  42661-3 0  9999
2 65057  97.3509 243.4148 0002050 110.1606 249.9842 15.05661699 49623
STARLINK-34779          
1 65058U 25165C   26167.46654649  .00004492  00000+0  31499-3 0  9996
2 65058  97.3510 243.6347 0002114 109.0911 251.0546 15.05663164 49653
STARLINK-34803          
1 65059U 25165D   26167.59392541  .00003184  00000+0  22452-3 0  9997
2 65059  97.3519 243.7704 0001452 115.6099 244.5278 15.05658750 49671
STARLINK-34717          
1 65060U 25165E   26167.44993271  .00006708  00000+0  46845-3 0  9997
2 65060  97.3528 243.6579 0001352  85.1782 274.9599 15.05650572 49656
STARLINK-34750          
1 65061U 25165F   26167.50254776  .00011015  00000+0  76576-3 0  9996
2 65061  97.3517 243.7364 0001245 150.1649 209.9650 15.05672182 49662
STARLINK-34708          
1 65062U 25165G   26167.47208181  .00001638  00000+0  11742-3 0  9996
2 65062  97.3533 243.6266 0001266  88.9642 271.1730 15.05664741 49656
STARLINK-34798          
1 65063U 25165H   26167.44439664  .00006372  00000+0  44501-3 0  9995
2 65063  97.3543 243.6710 0000771  96.0271 264.1044 15.05663865 49656
STARLINK-34793          
1 65064U 25165J   26167.45270438  .00005091  00000+0  35648-3 0  9998
2 65064  97.3534 243.6536 0001899 107.0231 253.1205 15.05657726 49650
STARLINK-34806          
1 65065U 25165K   26167.42777136  .00007487  00000+0  52216-3 0  9994
2 65065  97.3510 243.5331 0001628 168.0144 192.1123 15.05660642 49648
STARLINK-34739          
1 65066U 25165L   26167.17579438  .00005858  00000+0  40951-3 0  9995
2 65066  97.3533 243.4169 0001556 133.4532 226.6825 15.05663558 49617
STARLINK-34802          
1 65067U 25165M   26167.47485307  .00003363  00000+0  23692-3 0  9992
2 65067  97.3545 243.6220 0002034 103.9023 256.2431 15.05657264 49653
STARLINK-34810          
1 65068U 25165N   26167.48315853  .00004525  00000+0  31728-3 0  9992
2 65068  97.3535 243.6152 0001987 117.8070 242.3359 15.05658880 49659
STARLINK-34809          
1 65069U 25165P   26167.47762274  .00002654  00000+0  18782-3 0  9991
2 65069  97.3547 243.6236 0002178 141.6813 218.4570 15.05654746 49655
STARLINK-34794          
1 65070U 25165Q   26167.22563963  .00002707  00000+0  19154-3 0  9993
2 65070  97.3519 243.3476 0001644 125.7800 234.3580 15.05646810 49612
STARLINK-34805          
1 65071U 25165R   26167.61884329  .00005476  00000+0  38315-3 0  9995
2 65071  97.3517 243.7370 0002018  96.6427 263.5031 15.05656067 49671
STARLINK-34735          
1 65072U 25165S   26167.45824205  .00006993  00000+0  48777-3 0  9993
2 65072  97.3509 243.6470 0002045 117.6118 242.5317 15.05680175 49653
STARLINK-34781          
1 65073U 25165T   26167.16748813  .00006793  00000+0  47417-3 0  9990
2 65073  97.3522 243.4291 0000867 179.1036 181.0193 15.05661174 49613
STARLINK-34780          
1 65074U 25165U   26167.48038792  .00004659  00000+0  32661-3 0  9998
2 65074  97.3535 243.6193 0001374 166.3295 193.7970 15.05659591 49657
STARLINK-34771          
1 65078U 25167A   26167.62558836  .00014763  00000+0  50944-3 0  9997
2 65078  53.1595 284.5895 0001379  86.3975 273.7183 15.30209108 48669
STARLINK-34634          
1 65079U 25167B   26167.59632717  .00018342  00000+0  55264-3 0  9992
2 65079  53.1605 283.7004 0001219  71.8327 288.2808 15.34401846 48671
STARLINK-34267          
1 65080U 25167C   26167.59843182  .00024857  00000+0  74433-3 0  9991
2 65080  53.1602 283.7125 0001073  93.6762 266.4363 15.34401908 49895
STARLINK-34561          
1 65081U 25167D   26167.55289815  .00046575  00000+0  15731-2 0  9991
2 65081  53.1581 284.8407 0001900  21.1306 338.9773 15.30234065 49902
STARLINK-34626          
1 65082U 25167E   26167.58334491 -.00004040  00000+0 -10858-3 0  9995
2 65082  53.1596 282.4038 0000894  84.8431 182.9278 15.34377854  5906
STARLINK-34247          
1 65083U 25167F   26167.56660707  .00014017  00000+0  48440-3 0  9997
2 65083  53.1610 284.9304 0001303  84.1561 275.9588 15.30206359 48653
STARLINK-34601          
1 65084U 25167G   26167.58334491 -.02068739  00000+0 -56440-1 0  9999
2 65084  53.1599 282.3282 0001060  56.9899 205.7047 15.40605859  5796
STARLINK-34822          
1 65086U 25167J   26167.63464948  .00028080  00000+0  95474-3 0  9991
2 65086  53.1604 287.4381 0001422 100.2444 259.8717 15.30263960 48627
STARLINK-34686          
1 65087U 25167K   26167.63150105  .00018906  00000+0  64849-3 0  9997
2 65087  53.1593 287.4146 0001440  96.6998 263.4167 15.30216158 48623
